[{"OBJECT_NAME":"FLOCK 4G-11","OBJECT_ID":"2025-009W","EPOCH":"2026-03-09T10:57:03.681504","MEAN_MOTION":15.27220677,"ECCENTRICITY":0.00016118,"INCLINATION":97.3964,"RA_OF_ASC_NODE":150.6183,"ARG_OF_PERICENTER":333.5407,"MEAN_ANOMALY":26.575,"EPHEMERIS_TYPE":0,"CLASSIFICATION_TYPE":"U","NORAD_CAT_ID":62629,"ELEMENT_SET_NO":999,"REV_AT_EPOCH":6368,"BSTAR":0.00047740378,"MEAN_MOTION_DOT":0.00012672,"MEAN_MOTION_DDOT":0},{"OBJECT_NAME":"STARLINK-36464","OBJECT_ID":"2026-005AA","EPOCH":"2026-03-09T12:52:18.173280","MEAN_MOTION":15.27589081,"ECCENTRICITY":0.00017069,"INCLINATION":42.998,"RA_OF_ASC_NODE":238.7871,"ARG_OF_PERICENTER":265.8712,"MEAN_ANOMALY":94.1945,"EPHEMERIS_TYPE":0,"CLASSIFICATION_TYPE":"U","NORAD_CAT_ID":67428,"ELEMENT_SET_NO":999,"REV_AT_EPOCH":866,"BSTAR":0.00090180057,"MEAN_MOTION_DOT":0.00024644,"MEAN_MOTION_DDOT":0}]
