FLOCK 4G-11             
1 62629U 25009W   26068.45629261  .00012672  00000+0  47740-3 0  9990
2 62629  97.3964 150.6183 0001611 333.5407  26.5750 15.27220677 63680
STARLINK-36464          
1 67428U 26005AA  26068.53632145  .00024644  00000+0  90180-3 0  9991
2 67428  42.9980 238.7871 0001706 265.8712  94.1945 15.27589081  8660
